CCSDS_OMM_VERS = 2.0
CREATION_DATE  = 
ORIGINATOR     = 

OBJECT_NAME    = CZ-2C R/B
OBJECT_ID      = 2022-132E
CENTER_NAME    = EARTH
REF_FRAME      = TEME
TIME_SYSTEM    = UTC
MEAN_ELEMENT_THEORY = SGP/SGP4

EPOCH          = 2026-01-12T22:15:58.128768
MEAN_MOTION    = 15.57082466
ECCENTRICITY   = .0017171
INCLINATION    = 97.2949
RA_OF_ASC_NODE = 14.7737
ARG_OF_PERICENTER = 302.1065
MEAN_ANOMALY   = 57.8523

EPHEMERIS_TYPE = 0
CLASSIFICATION_TYPE = U
NORAD_CAT_ID   = 54039
ELEMENT_SET_NO = 999
REV_AT_EPOCH   = 18168
BSTAR          = .34895E-3
MEAN_MOTION_DOT = .25363E-3
MEAN_MOTION_DDOT = 0

CCSDS_OMM_VERS = 2.0
CREATION_DATE  = 
ORIGINATOR     = 

OBJECT_NAME    = GSLV R/B
OBJECT_ID      = 2022-138AN
CENTER_NAME    = EARTH
REF_FRAME      = TEME
TIME_SYSTEM    = UTC
MEAN_ELEMENT_THEORY = SGP/SGP4

EPOCH          = 2026-01-12T22:55:08.479200
MEAN_MOTION    = 14.96326435
ECCENTRICITY   = .0021675
INCLINATION    = 87.3830
RA_OF_ASC_NODE = 185.0181
ARG_OF_PERICENTER = 0.5726
MEAN_ANOMALY   = 359.5526

EPHEMERIS_TYPE = 0
CLASSIFICATION_TYPE = U
NORAD_CAT_ID   = 54149
ELEMENT_SET_NO = 999
REV_AT_EPOCH   = 17559
BSTAR          = .21423E-3
MEAN_MOTION_DOT = .2461E-4
MEAN_MOTION_DDOT = 0

CCSDS_OMM_VERS = 2.0
CREATION_DATE  = 
ORIGINATOR     = 

OBJECT_NAME    = XRISM
OBJECT_ID      = 2023-137A
CENTER_NAME    = EARTH
REF_FRAME      = TEME
TIME_SYSTEM    = UTC
MEAN_ELEMENT_THEORY = SGP/SGP4

EPOCH          = 2026-01-13T03:44:28.037184
MEAN_MOTION    = 15.10753369
ECCENTRICITY   = .0007938
INCLINATION    = 31.0024
RA_OF_ASC_NODE = 282.6532
ARG_OF_PERICENTER = 204.2145
MEAN_ANOMALY   = 155.8121

EPHEMERIS_TYPE = 0
CLASSIFICATION_TYPE = U
NORAD_CAT_ID   = 57800
ELEMENT_SET_NO = 999
REV_AT_EPOCH   = 12938
BSTAR          = .21815E-3
MEAN_MOTION_DOT = .3806E-4
MEAN_MOTION_DDOT = 0

CCSDS_OMM_VERS = 2.0
CREATION_DATE  = 
ORIGINATOR     = 

OBJECT_NAME    = ACS3
OBJECT_ID      = 2024-077B
CENTER_NAME    = EARTH
REF_FRAME      = TEME
TIME_SYSTEM    = UTC
MEAN_ELEMENT_THEORY = SGP/SGP4

EPOCH          = 2026-01-13T03:36:06.639840
MEAN_MOTION    = 13.87095067
ECCENTRICITY   = .0060492
INCLINATION    = 97.2421
RA_OF_ASC_NODE = 326.7364
ARG_OF_PERICENTER = 258.5025
MEAN_ANOMALY   = 100.9340

EPHEMERIS_TYPE = 0
CLASSIFICATION_TYPE = U
NORAD_CAT_ID   = 59588
ELEMENT_SET_NO = 999
REV_AT_EPOCH   = 8649
BSTAR          = .68935E-2
MEAN_MOTION_DOT = .8176E-4
MEAN_MOTION_DDOT = 0

CCSDS_OMM_VERS = 2.0
CREATION_DATE  = 
ORIGINATOR     = 

OBJECT_NAME    = SZ-21 MODULE
OBJECT_ID      = 2025-246C
CENTER_NAME    = EARTH
REF_FRAME      = TEME
TIME_SYSTEM    = UTC
MEAN_ELEMENT_THEORY = SGP/SGP4

EPOCH          = 2026-01-13T03:49:47.084736
MEAN_MOTION    = 15.64420875
ECCENTRICITY   = .0001746
INCLINATION    = 41.4740
RA_OF_ASC_NODE = 184.1107
ARG_OF_PERICENTER = 156.7116
MEAN_ANOMALY   = 203.3803

EPHEMERIS_TYPE = 0
CLASSIFICATION_TYPE = U
NORAD_CAT_ID   = 66515
ELEMENT_SET_NO = 999
REV_AT_EPOCH   = 936
BSTAR          = .23567E-3
MEAN_MOTION_DOT = .23002E-3
MEAN_MOTION_DDOT = 0

